[Satellite]
VERSION=1.1
NAME=FLOCK 2P-11
NICKNAME=FLOCK 2P-11
TLE1=1 41608U 16040K   18020.85138319  .00002723  00000-0  11610-3 0  9995
TLE2=2 41608  97.4324  86.6934 0011384  39.3665 320.8397 15.23738714 87777
